[{"spaceTrack":{"CCSDS_OMM_VERS":"2.0","COMMENT":"GENERATED VIA SPACE-TRACK.ORG API","CREATION_DATE":"2021-10-25T22:36:11","ORIGINATOR":"18 SPCS","OBJECT_NAME":"STARLINK-2508","OBJECT_ID":"2021-040AE","CENTER_NAME":"EARTH","REF_FRAME":"TEME","TIME_SYSTEM":"UTC","MEAN_ELEMENT_THEORY":"SGP4","EPOCH":"2021-10-25T07:45:29.787552","MEAN_MOTION":15.06395885,"ECCENTRICITY":0.0002103,"INCLINATION":53.0539,"RA_OF_ASC_NODE":147.9841,"ARG_OF_PERICENTER":76.163,"MEAN_ANOMALY":283.9592,"EPHEMERIS_TYPE":0,"CLASSIFICATION_TYPE":"U","NORAD_CAT_ID":48456,"ELEMENT_SET_NO":999,"REV_AT_EPOCH":2662,"BSTAR":0.000025144,"MEAN_MOTION_DOT":9.3e-7,"MEAN_MOTION_DDOT":0,"SEMIMAJOR_AXIS":6925.361,"PERIOD":95.592,"APOAPSIS":548.683,"PERIAPSIS":545.77,"OBJECT_TYPE":"PAYLOAD","RCS_SIZE":"LARGE","COUNTRY_CODE":"US","LAUNCH_DATE":"2021-05-09","SITE":"AFETR","DECAY_DATE":null,"DECAYED":0,"FILE":3183679,"GP_ID":188150610,"TLE_LINE0":"0 STARLINK-2508","TLE_LINE1":"1 48456U 21040AE  21298.32326143  .00000093  00000-0  25144-4 0  9992","TLE_LINE2":"2 48456  53.0539 147.9841 0002103  76.1630 283.9592 15.06395885 26621"},"height_km":548.3879375248935,"latitude":-3.0514459807419168,"launch":"6079bd1c9a06446e8c61bf76","longitude":-129.30785907098448,"velocity_kms":7.588852112264836,"version":"v1.0","id":"60a44136b913a10006eea5c3"},{"spaceTrack":{"CCSDS_OMM_VERS":"2.0","COMMENT":"GENERATED VIA SPACE-TRACK.ORG API","CREATION_DATE":"2021-10-25T18:30:04","ORIGINATOR":"18 SPCS","OBJECT_NAME":"STARLINK-2241","OBJECT_ID":"2021-041AK","CENTER_NAME":"EARTH","REF_FRAME":"TEME","TIME_SYSTEM":"UTC","MEAN_ELEMENT_THEORY":"SGP4","EPOCH":"2021-10-25T04:02:34.415232","MEAN_MOTION":15.06399181,"ECCENTRICITY":0.0001813,"INCLINATION":53.0549,"RA_OF_ASC_NODE":108.6764,"ARG_OF_PERICENTER":81.8404,"MEAN_ANOMALY":278.2791,"EPHEMERIS_TYPE":0,"CLASSIFICATION_TYPE":"U","NORAD_CAT_ID":48586,"ELEMENT_SET_NO":999,"REV_AT_EPOCH":2442,"BSTAR":0.000087106,"MEAN_MOTION_DOT":0.00001016,"MEAN_MOTION_DDOT":0,"SEMIMAJOR_AXIS":6925.351,"PERIOD":95.592,"APOAPSIS":548.472,"PERIAPSIS":545.961,"OBJECT_TYPE":"PAYLOAD","RCS_SIZE":"LARGE","COUNTRY_CODE":"US","LAUNCH_DATE":"2021-05-15","SITE":"AFETR","DECAY_DATE":null,"DECAYED":0,"FILE":3183453,"GP_ID":188145413,"TLE_LINE0":"0 STARLINK-2241","TLE_LINE1":"1 48586U 21041AK  21298.16845388  .00001016  00000-0  87106-4 0  9998","TLE_LINE2":"2 48586  53.0549 108.6764 0001813  81.8404 278.2791 15.06399181 24420"},"height_km":551.0158839686037,"latitude":45.92243812959148,"launch":"605b4b95aa5433645e37d041","longitude":-37.59105877413934,"velocity_kms":7.592612348758662,"version":"v1.0","id":"60ad51756fc866000628c906"},{"spaceTrack":{"CCSDS_OMM_VERS":"2.0","COMMENT":"GENERATED VIA SPACE-TRACK.ORG API","CREATION_DATE":"2021-10-25T22:36:11","ORIGINATOR":"18 SPCS","OBJECT_NAME":"STARLINK-2244","OBJECT_ID":"2021-041AM","CENTER_NAME":"EARTH","REF_FRAME":"TEME","TIME_SYSTEM":"UTC","MEAN_ELEMENT_THEORY":"SGP4","EPOCH":"2021-10-25T11:35:03.894144","MEAN_MOTION":15.06391524,"ECCENTRICITY":0.0001753,"INCLINATION":53.0554,"RA_OF_ASC_NODE":97.2818,"ARG_OF_PERICENTER":81.4,"MEAN_ANOMALY":278.7188,"EPHEMERIS_TYPE":0,"CLASSIFICATION_TYPE":"U","NORAD_CAT_ID":48588,"ELEMENT_SET_NO":999,"REV_AT_EPOCH":2506,"BSTAR":-0.00006693,"MEAN_MOTION_DOT":-0.00001278,"MEAN_MOTION_DDOT":0,"SEMIMAJOR_AXIS":6925.375,"PERIOD":95.593,"APOAPSIS":548.454,"PERIAPSIS":546.026,"OBJECT_TYPE":"PAYLOAD","RCS_SIZE":"LARGE","COUNTRY_CODE":"US","LAUNCH_DATE":"2021-05-15","SITE":"AFETR","DECAY_DATE":null,"DECAYED":0,"FILE":3183694,"GP_ID":188151355,"TLE_LINE0":"0 STARLINK-2244","TLE_LINE1":"1 48588U 21041AM  21298.48268396 -.00001278  00000-0 -66930-4 0  9997","TLE_LINE2":"2 48588  53.0554  97.2818 0001753  81.4000 278.7188 15.06391524 25061"},"height_km":555.0863999966568,"latitude":-24.652067008706663,"launch":"605b4b95aa5433645e37d041","longitude":23.071370751222247,"velocity_kms":7.583739679547663,"version":"v1.0","id":"60ad51756fc866000628c908"},{"spaceTrack":{"CCSDS_OMM_VERS":"2.0","COMMENT":"GENERATED VIA SPACE-TRACK.ORG API","CREATION_DATE":"2021-10-25T22:36:11","ORIGINATOR":"18 SPCS","OBJECT_NAME":"STARLINK-2236","OBJECT_ID":"2021-041AF","CENTER_NAME":"EARTH","REF_FRAME":"TEME","TIME_SYSTEM":"UTC","MEAN_ELEMENT_THEORY":"SGP4","EPOCH":"2021-10-25T22:00:00.999936","MEAN_MOTION":15.42180773,"ECCENTRICITY":0.0003141,"INCLINATION":53.0538,"RA_OF_ASC_NODE":66.4828,"ARG_OF_PERICENTER":17.5971,"MEAN_ANOMALY":213.5903,"EPHEMERIS_TYPE":0,"CLASSIFICATION_TYPE":"U","NORAD_CAT_ID":48582,"ELEMENT_SET_NO":999,"REV_AT_EPOCH":2553,"BSTAR":-0.00030834,"MEAN_MOTION_DOT":-0.00013819,"MEAN_MOTION_DDOT":0,"SEMIMAJOR_AXIS":6817.811,"PERIOD":93.374,"APOAPSIS":441.818,"PERIAPSIS":437.535,"OBJECT_TYPE":"PAYLOAD","RCS_SIZE":"LARGE","COUNTRY_CODE":"US","LAUNCH_DATE":"2021-05-15","SITE":"AFETR","DECAY_DATE":null,"DECAYED":0,"FILE":3183678,"GP_ID":188150587,"TLE_LINE0":"0 STARLINK-2236","TLE_LINE1":"1 48582U 21041AF  21298.91667824 -.00013819  00000-0 -30834-3 0  9995","TLE_LINE2":"2 48582  53.0538  66.4828 0003141  17.5971 213.5903 15.42180773 25532"},"height_km":441.93685750533405,"latitude":-14.545897557523165,"launch":"605b4b95aa5433645e37d041","longitude":142.77121226377983,"velocity_kms":7.64815383565826,"version":"v1.0","id":"60ad5176167a2900060b8a5f"},{"spaceTrack":{"CCSDS_OMM_VERS":"2.0","COMMENT":"GENERATED VIA SPACE-TRACK.ORG API","CREATION_DATE":"2021-10-26T14:46:11","ORIGINATOR":"18 SPCS","OBJECT_NAME":"STARLINK-2222","OBJECT_ID":"2021-041V","CENTER_NAME":"EARTH","REF_FRAME":"TEME","TIME_SYSTEM":"UTC","MEAN_ELEMENT_THEORY":"SGP4","EPOCH":"2021-10-26T04:16:54.339744","MEAN_MOTION":15.06389438,"ECCENTRICITY":0.0001713,"INCLINATION":53.0549,"RA_OF_ASC_NODE":104.1377,"ARG_OF_PERICENTER":86.6149,"MEAN_ANOMALY":273.5036,"EPHEMERIS_TYPE":0,"CLASSIFICATION_TYPE":"U","NORAD_CAT_ID":48572,"ELEMENT_SET_NO":999,"REV_AT_EPOCH":2498,"BSTAR":0.000056509,"MEAN_MOTION_DOT":0.0000056,"MEAN_MOTION_DDOT":0,"SEMIMAJOR_AXIS":6925.381,"PERIOD":95.593,"APOAPSIS":548.432,"PERIAPSIS":546.06,"OBJECT_TYPE":"PAYLOAD","RCS_SIZE":"LARGE","COUNTRY_CODE":"US","LAUNCH_DATE":"2021-05-15","SITE":"AFETR","DECAY_DATE":null,"DECAYED":0,"FILE":3184784,"GP_ID":188174396,"TLE_LINE0":"0 STARLINK-2222","TLE_LINE1":"1 48572U 21041V   21299.17840671  .00000560  00000-0  56509-4 0  9991","TLE_LINE2":"2 48572  53.0549 104.1377 0001713  86.6149 273.5036 15.06389438 24989"},"height_km":547.9269081071343,"latitude":28.228377619288093,"launch":"605b4b95aa5433645e37d041","longitude":-143.35073070755752,"velocity_kms":7.5922284272408875,"version":"v1.0","id":"60ad5176167a2900060b8a60"},{"spaceTrack":{"CCSDS_OMM_VERS":"2.0","COMMENT":"GENERATED VIA SPACE-TRACK.ORG API","CREATION_DATE":"2021-10-25T22:36:11","ORIGINATOR":"18 SPCS","OBJECT_NAME":"STARLINK-2167","OBJECT_ID":"2021-041G","CENTER_NAME":"EARTH","REF_FRAME":"TEME","TIME_SYSTEM":"UTC","MEAN_ELEMENT_THEORY":"SGP4","EPOCH":"2021-10-25T13:35:46.333536","MEAN_MOTION":15.06402239,"ECCENTRICITY":0.0001846,"INCLINATION":53.052,"RA_OF_ASC_NODE":96.9005,"ARG_OF_PERICENTER":88.0007,"MEAN_ANOMALY":272.1193,"EPHEMERIS_TYPE":0,"CLASSIFICATION_TYPE":"U","NORAD_CAT_ID":48559,"ELEMENT_SET_NO":999,"REV_AT_EPOCH":2507,"BSTAR":-0.0000049857,"MEAN_MOTION_DOT":-0.00000356,"MEAN_MOTION_DDOT":0,"SEMIMAJOR_AXIS":6925.342,"PERIOD":95.592,"APOAPSIS":548.485,"PERIAPSIS":545.928,"OBJECT_TYPE":"PAYLOAD","RCS_SIZE":"LARGE","COUNTRY_CODE":"US","LAUNCH_DATE":"2021-05-15","SITE":"AFETR","DECAY_DATE":null,"DECAYED":0,"FILE":3183720,"GP_ID":188150364,"TLE_LINE0":"0 STARLINK-2167","TLE_LINE1":"1 48559U 21041G   21298.56650849 -.00000356  00000-0 -49857-5 0  9998","TLE_LINE2":"2 48559  53.0520  96.9005 0001846  88.0007 272.1193 15.06402239 25070"},"height_km":550.9232427293746,"latitude":45.80666960587315,"launch":"605b4b95aa5433645e37d041","longitude":-47.31232131599076,"velocity_kms":7.592689288187942,"version":"v1.0","id":"60ad51776fc866000628c9c8"},{"spaceTrack":{"CCSDS_OMM_VERS":"2.0","COMMENT":"GENERATED VIA SPACE-TRACK.ORG API","CREATION_DATE":"2021-10-26T07:06:12","ORIGINATOR":"18 SPCS","OBJECT_NAME":"STARLINK-2240","OBJECT_ID":"2021-041AJ","CENTER_NAME":"EARTH","REF_FRAME":"TEME","TIME_SYSTEM":"UTC","MEAN_ELEMENT_THEORY":"SGP4","EPOCH":"2021-10-25T23:19:40.073376","MEAN_MOTION":15.06391089,"ECCENTRICITY":0.0001348,"INCLINATION":53.0551,"RA_OF_ASC_NODE":105.0703,"ARG_OF_PERICENTER":89.354,"MEAN_ANOMALY":270.7603,"EPHEMERIS_TYPE":0,"CLASSIFICATION_TYPE":"U","NORAD_CAT_ID":48585,"ELEMENT_SET_NO":999,"REV_AT_EPOCH":2494,"BSTAR":0.00011168,"MEAN_MOTION_DOT":0.00001382,"MEAN_MOTION_DDOT":0,"SEMIMAJOR_AXIS":6925.376,"PERIOD":95.593,"APOAPSIS":548.174,"PERIAPSIS":546.307,"OBJECT_TYPE":"PAYLOAD","RCS_SIZE":"LARGE","COUNTRY_CODE":"US","LAUNCH_DATE":"2021-05-15","SITE":"AFETR","DECAY_DATE":null,"DECAYED":0,"FILE":3184262,"GP_ID":188163796,"TLE_LINE0":"0 STARLINK-2240","TLE_LINE1":"1 48585U 21041AJ  21298.97199159  .00001382  00000-0  11168-3 0  9994","TLE_LINE2":"2 48585  53.0551 105.0703 0001348  89.3540 270.7603 15.06391089 24948"},"height_km":552.4059325830258,"latitude":51.05468032027275,"launch":"605b4b95aa5433645e37d041","longitude":-99.2859669262451,"velocity_kms":7.592257554872966,"version":"v1.0","id":"60ad5178167a2900060b8acb"}]